CCSDS_OMM_VERS = 2.0
CREATION_DATE  = 
ORIGINATOR     = 

OBJECT_NAME    = KUIPER-00129
OBJECT_ID      = 2025-228M
CENTER_NAME    = EARTH
REF_FRAME      = TEME
TIME_SYSTEM    = UTC
MEAN_ELEMENT_THEORY = SGP/SGP4

EPOCH          = 2025-11-06T18:47:01.303872
MEAN_MOTION    = 15.36535026
ECCENTRICITY   = .00095839
INCLINATION    = 51.8780
RA_OF_ASC_NODE = 193.8093
ARG_OF_PERICENTER = 218.5310
MEAN_ANOMALY   = 141.4994

EPHEMERIS_TYPE = 0
CLASSIFICATION_TYPE = U
NORAD_CAT_ID   = 65958
ELEMENT_SET_NO = 999
REV_AT_EPOCH   = 489
BSTAR          = .53446067E-1
MEAN_MOTION_DOT = .2156696E-1
MEAN_MOTION_DDOT = 0

CCSDS_OMM_VERS = 2.0
CREATION_DATE  = 
ORIGINATOR     = 

OBJECT_NAME    = KUIPER-00130
OBJECT_ID      = 2025-228N
CENTER_NAME    = EARTH
REF_FRAME      = TEME
TIME_SYSTEM    = UTC
MEAN_ELEMENT_THEORY = SGP/SGP4

EPOCH          = 2025-11-06T21:59:46.409568
MEAN_MOTION    = 15.34756670
ECCENTRICITY   = .00049406
INCLINATION    = 51.8785
RA_OF_ASC_NODE = 193.1986
ARG_OF_PERICENTER = 231.3502
MEAN_ANOMALY   = 128.7042

EPHEMERIS_TYPE = 0
CLASSIFICATION_TYPE = U
NORAD_CAT_ID   = 65959
ELEMENT_SET_NO = 999
REV_AT_EPOCH   = 491
BSTAR          = .81654921E-3
MEAN_MOTION_DOT = .27661E-3
MEAN_MOTION_DDOT = 0

CCSDS_OMM_VERS = 2.0
CREATION_DATE  = 
ORIGINATOR     = 

OBJECT_NAME    = KUIPER-00134
OBJECT_ID      = 2025-228P
CENTER_NAME    = EARTH
REF_FRAME      = TEME
TIME_SYSTEM    = UTC
MEAN_ELEMENT_THEORY = SGP/SGP4

EPOCH          = 2025-11-06T22:02:05.181792
MEAN_MOTION    = 15.34643896
ECCENTRICITY   = .00049889
INCLINATION    = 51.8782
RA_OF_ASC_NODE = 193.2090
ARG_OF_PERICENTER = 236.0615
MEAN_ANOMALY   = 123.9897

EPHEMERIS_TYPE = 0
CLASSIFICATION_TYPE = U
NORAD_CAT_ID   = 65960
ELEMENT_SET_NO = 999
REV_AT_EPOCH   = 491
BSTAR          = .46529817E-3
MEAN_MOTION_DOT = .15516E-3
MEAN_MOTION_DDOT = 0

CCSDS_OMM_VERS = 2.0
CREATION_DATE  = 
ORIGINATOR     = 

OBJECT_NAME    = KUIPER-00135
OBJECT_ID      = 2025-228Q
CENTER_NAME    = EARTH
REF_FRAME      = TEME
TIME_SYSTEM    = UTC
MEAN_ELEMENT_THEORY = SGP/SGP4

EPOCH          = 2025-11-06T22:01:37.347168
MEAN_MOTION    = 15.34633274
ECCENTRICITY   = .00049388
INCLINATION    = 51.8795
RA_OF_ASC_NODE = 193.2153
ARG_OF_PERICENTER = 222.4587
MEAN_ANOMALY   = 137.6017

EPHEMERIS_TYPE = 0
CLASSIFICATION_TYPE = U
NORAD_CAT_ID   = 65961
ELEMENT_SET_NO = 999
REV_AT_EPOCH   = 491
BSTAR          = .6496653E-3
MEAN_MOTION_DOT = .21826E-3
MEAN_MOTION_DDOT = 0

CCSDS_OMM_VERS = 2.0
CREATION_DATE  = 
ORIGINATOR     = 

OBJECT_NAME    = KUIPER-00136
OBJECT_ID      = 2025-228R
CENTER_NAME    = EARTH
REF_FRAME      = TEME
TIME_SYSTEM    = UTC
MEAN_ELEMENT_THEORY = SGP/SGP4

EPOCH          = 2025-11-06T23:26:07.528128
MEAN_MOTION    = 15.34970483
ECCENTRICITY   = .00055814
INCLINATION    = 51.8786
RA_OF_ASC_NODE = 192.8593
ARG_OF_PERICENTER = 215.9382
MEAN_ANOMALY   = 144.1229

EPHEMERIS_TYPE = 0
CLASSIFICATION_TYPE = U
NORAD_CAT_ID   = 65962
ELEMENT_SET_NO = 999
REV_AT_EPOCH   = 492
BSTAR          = .47113778E-3
MEAN_MOTION_DOT = .15884E-3
MEAN_MOTION_DDOT = 0

CCSDS_OMM_VERS = 2.0
CREATION_DATE  = 
ORIGINATOR     = 

OBJECT_NAME    = KUIPER-00137
OBJECT_ID      = 2025-228S
CENTER_NAME    = EARTH
REF_FRAME      = TEME
TIME_SYSTEM    = UTC
MEAN_ELEMENT_THEORY = SGP/SGP4

EPOCH          = 2025-11-06T22:00:34.111008
MEAN_MOTION    = 15.34667571
ECCENTRICITY   = .00048136
INCLINATION    = 51.8792
RA_OF_ASC_NODE = 193.2104
ARG_OF_PERICENTER = 229.2597
MEAN_ANOMALY   = 130.7972

EPHEMERIS_TYPE = 0
CLASSIFICATION_TYPE = U
NORAD_CAT_ID   = 65963
ELEMENT_SET_NO = 999
REV_AT_EPOCH   = 491
BSTAR          = .79310137E-3
MEAN_MOTION_DOT = .26775E-3
MEAN_MOTION_DDOT = 0

CCSDS_OMM_VERS = 2.0
CREATION_DATE  = 
ORIGINATOR     = 

OBJECT_NAME    = KUIPER-00138
OBJECT_ID      = 2025-228T
CENTER_NAME    = EARTH
REF_FRAME      = TEME
TIME_SYSTEM    = UTC
MEAN_ELEMENT_THEORY = SGP/SGP4

EPOCH          = 2025-11-06T22:04:44.655456
MEAN_MOTION    = 15.34396253
ECCENTRICITY   = .00061257
INCLINATION    = 51.8785
RA_OF_ASC_NODE = 193.2224
ARG_OF_PERICENTER = 243.6968
MEAN_ANOMALY   = 116.3389

EPHEMERIS_TYPE = 0
CLASSIFICATION_TYPE = U
NORAD_CAT_ID   = 65964
ELEMENT_SET_NO = 999
REV_AT_EPOCH   = 491
BSTAR          = .33824882E-3
MEAN_MOTION_DOT = .1108E-3
MEAN_MOTION_DDOT = 0

CCSDS_OMM_VERS = 2.0
CREATION_DATE  = 
ORIGINATOR     = 

OBJECT_NAME    = KUIPER-00140
OBJECT_ID      = 2025-228U
CENTER_NAME    = EARTH
REF_FRAME      = TEME
TIME_SYSTEM    = UTC
MEAN_ELEMENT_THEORY = SGP/SGP4

EPOCH          = 2025-11-06T22:05:39.368256
MEAN_MOTION    = 15.34443368
ECCENTRICITY   = .0005399
INCLINATION    = 51.8795
RA_OF_ASC_NODE = 193.2304
ARG_OF_PERICENTER = 243.0092
MEAN_ANOMALY   = 117.0343

EPHEMERIS_TYPE = 0
CLASSIFICATION_TYPE = U
NORAD_CAT_ID   = 65965
ELEMENT_SET_NO = 999
REV_AT_EPOCH   = 491
BSTAR          = -.17799232E-4
MEAN_MOTION_DOT = -.984E-5
MEAN_MOTION_DDOT = 0

CCSDS_OMM_VERS = 2.0
CREATION_DATE  = 
ORIGINATOR     = 

OBJECT_NAME    = KUIPER-00141
OBJECT_ID      = 2025-228V
CENTER_NAME    = EARTH
REF_FRAME      = TEME
TIME_SYSTEM    = UTC
MEAN_ELEMENT_THEORY = SGP/SGP4

EPOCH          = 2025-11-06T23:30:02.849760
MEAN_MOTION    = 15.34891788
ECCENTRICITY   = .00055011
INCLINATION    = 51.8781
RA_OF_ASC_NODE = 192.8707
ARG_OF_PERICENTER = 221.9352
MEAN_ANOMALY   = 138.1213

EPHEMERIS_TYPE = 0
CLASSIFICATION_TYPE = U
NORAD_CAT_ID   = 65966
ELEMENT_SET_NO = 999
REV_AT_EPOCH   = 492
BSTAR          = .74565427E-3
MEAN_MOTION_DOT = .2533E-3
MEAN_MOTION_DDOT = 0

CCSDS_OMM_VERS = 2.0
CREATION_DATE  = 
ORIGINATOR     = 

OBJECT_NAME    = KUIPER-00146
OBJECT_ID      = 2025-228W
CENTER_NAME    = EARTH
REF_FRAME      = TEME
TIME_SYSTEM    = UTC
MEAN_ELEMENT_THEORY = SGP/SGP4

EPOCH          = 2025-11-06T23:30:48.290112
MEAN_MOTION    = 15.34862804
ECCENTRICITY   = .0005485
INCLINATION    = 51.8794
RA_OF_ASC_NODE = 192.8812
ARG_OF_PERICENTER = 223.7647
MEAN_ANOMALY   = 136.2904

EPHEMERIS_TYPE = 0
CLASSIFICATION_TYPE = U
NORAD_CAT_ID   = 65967
ELEMENT_SET_NO = 999
REV_AT_EPOCH   = 492
BSTAR          = .73270913E-3
MEAN_MOTION_DOT = .24859E-3
MEAN_MOTION_DDOT = 0

CCSDS_OMM_VERS = 2.0
CREATION_DATE  = 
ORIGINATOR     = 

OBJECT_NAME    = KUIPER-00149
OBJECT_ID      = 2025-228X
CENTER_NAME    = EARTH
REF_FRAME      = TEME
TIME_SYSTEM    = UTC
MEAN_ELEMENT_THEORY = SGP/SGP4

EPOCH          = 2025-11-06T23:26:41.955072
MEAN_MOTION    = 15.35040597
ECCENTRICITY   = .00053543
INCLINATION    = 51.8782
RA_OF_ASC_NODE = 192.8571
ARG_OF_PERICENTER = 220.3145
MEAN_ANOMALY   = 139.7445

EPHEMERIS_TYPE = 0
CLASSIFICATION_TYPE = U
NORAD_CAT_ID   = 65968
ELEMENT_SET_NO = 999
REV_AT_EPOCH   = 492
BSTAR          = .81847471E-3
MEAN_MOTION_DOT = .27984E-3
MEAN_MOTION_DDOT = 0

CCSDS_OMM_VERS = 2.0
CREATION_DATE  = 
ORIGINATOR     = 

OBJECT_NAME    = KUIPER-00154
OBJECT_ID      = 2025-228Y
CENTER_NAME    = EARTH
REF_FRAME      = TEME
TIME_SYSTEM    = UTC
MEAN_ELEMENT_THEORY = SGP/SGP4

EPOCH          = 2025-11-06T21:51:24.641568
MEAN_MOTION    = 15.35097394
ECCENTRICITY   = .00057369
INCLINATION    = 51.8781
RA_OF_ASC_NODE = 193.1634
ARG_OF_PERICENTER = 217.3113
MEAN_ANOMALY   = 142.7475

EPHEMERIS_TYPE = 0
CLASSIFICATION_TYPE = U
NORAD_CAT_ID   = 65969
ELEMENT_SET_NO = 999
REV_AT_EPOCH   = 491
BSTAR          = .50514275E-3
MEAN_MOTION_DOT = .17132E-3
MEAN_MOTION_DDOT = 0

