KUIPER-00129            
1 65958U 25228M   25310.78265398  .02156696  00000+0  53446-1 0  9998
2 65958  51.8780 193.8093 0009583 218.5310 141.4994 15.36535026  4891
KUIPER-00130            
1 65959U 25228N   25310.91650937  .00027661  00000+0  81655-3 0  9993
2 65959  51.8785 193.1986 0004940 231.3502 128.7042 15.34756670  4912
KUIPER-00134            
1 65960U 25228P   25310.91811553  .00015516  00000+0  46530-3 0  9997
2 65960  51.8782 193.2090 0004988 236.0615 123.9897 15.34643896  4917
KUIPER-00135            
1 65961U 25228Q   25310.91779337  .00021826  00000+0  64967-3 0  9996
2 65961  51.8795 193.2153 0004938 222.4587 137.6017 15.34633274  4919
KUIPER-00136            
1 65962U 25228R   25310.97647602  .00015884  00000+0  47114-3 0  9994
2 65962  51.8786 192.8593 0005581 215.9382 144.1229 15.34970483  4923
KUIPER-00137            
1 65963U 25228S   25310.91706147  .00026775  00000+0  79310-3 0  9993
2 65963  51.8792 193.2104 0004813 229.2597 130.7972 15.34667571  4913
KUIPER-00138            
1 65964U 25228T   25310.91996129  .00011080  00000+0  33825-3 0  9999
2 65964  51.8785 193.2224 0006125 243.6968 116.3389 15.34396253  4917
KUIPER-00140            
1 65965U 25228U   25310.92059454 -.00000984  00000+0 -17799-4 0  9998
2 65965  51.8795 193.2304 0005399 243.0092 117.0343 15.34443368  4910
KUIPER-00141            
1 65966U 25228V   25310.97919965  .00025330  00000+0  74565-3 0  9999
2 65966  51.8781 192.8707 0005501 221.9352 138.1213 15.34891788  4921
KUIPER-00146            
1 65967U 25228W   25310.97972558  .00024859  00000+0  73271-3 0  9995
2 65967  51.8794 192.8812 0005485 223.7647 136.2904 15.34862804  4924
KUIPER-00149            
1 65968U 25228X   25310.97687448  .00027984  00000+0  81847-3 0  9997
2 65968  51.8782 192.8571 0005354 220.3145 139.7445 15.35040597  4921
KUIPER-00154            
1 65969U 25228Y   25310.91070187  .00017132  00000+0  50514-3 0  9999
2 65969  51.8781 193.1634 0005736 217.3113 142.7475 15.35097394  4913
